{"type": "FeatureCollection", "features": [ {"type": "Feature", "properties": {"norad_id": 41836, "name": "HIMAWARI-9", "group": "weather", "lat": 0.017761981501760515, "lon": 156.76827356625537, "alt_km": 35789.24709290722, "timestamp": "2025-12-27T18:38:03.121180+00:00", "meta": {"OBJECT_NAME": "HIMAWARI-9", "OBJECT_ID": "2016-064A", "EPOCH": "2025-12-27T06:49:10.839072", "MEAN_MOTION": 1.00267784, "ECCENTRICITY": 9.49e-05, "INCLINATION": 0.0135, "RA_OF_ASC_NODE": 82.1147, "ARG_OF_PERICENTER": 194.3858, "MEAN_ANOMALY": 62.5887, "EPHEMERIS_TYPE": 0, "CLASSIFICATION_TYPE": "U", "NORAD_CAT_ID": 41836, "ELEMENT_SET_NO": 999, "REV_AT_EPOCH": 3348, "BSTAR": 0, "MEAN_MOTION_DOT": -2.53e-06, "MEAN_MOTION_DDOT": 0}, "tle": {"line1": "1 41836U 16064A   25361.28415323 -.00000253  00000+0  00000+0 0  9993", "line2": "2 41836   0.0135  82.1147 0000949 194.3858  62.5887  1.00267784 33485"}}, "geometry": {"type": "Point", "coordinates": [156.76827356625537, 0.017761981501760515]}}, {"type": "Feature", "properties": {"norad_id": 41866, "name": "GOES 16", "group": "weather", "lat": -0.005644713104023866, "lon": -88.64841258222417, "alt_km": 35771.25541801519, "timestamp": "2025-12-27T18:38:03.121192+00:00", "meta": {"OBJECT_NAME": "GOES 16", "OBJECT_ID": "2016-071A", "EPOCH": "2025-12-27T10:47:33.012096", "MEAN_MOTION": 1.00272973, "ECCENTRICITY": 0.0003429, "INCLINATION": 0.0745, "RA_OF_ASC_NODE": 101.7179, "ARG_OF_PERICENTER": 166.832, "MEAN_ANOMALY": 244.8581, "EPHEMERIS_TYPE": 0, "CLASSIFICATION_TYPE": "U", "NORAD_CAT_ID": 41866, "ELEMENT_SET_NO": 999, "REV_AT_EPOCH": 3338, "BSTAR": 0, "MEAN_MOTION_DOT": -6.9e-07, "MEAN_MOTION_DDOT": 0}, "tle": {"line1": "1 41866U 16071A   25361.44968764 -.00000069  00000+0  00000+0 0  9999", "line2": "2 41866   0.0745 101.7179 0003429 166.8320 244.8581  1.00272973 33383"}}, "geometry": {"type": "Point", "coordinates": [-88.64841258222417, -0.005644713104023866]}}, {"type": "Feature", "properties": {"norad_id": 41882, "name": "FENGYUN 4A", "group": "weather", "lat": 1.6005679535606427, "lon": 139.54939144892927, "alt_km": 35777.863226182504, "timestamp": "2025-12-27T18:38:03.121204+00:00", "meta": {"OBJECT_NAME": "FENGYUN 4A", "OBJECT_ID": "2016-077A", "EPOCH": "2025-12-27T12:27:29.162592", "MEAN_MOTION": 1.00279782, "ECCENTRICITY": 0.0005301, "INCLINATION": 1.8841, "RA_OF_ASC_NODE": 82.2523, "ARG_OF_PERICENTER": 132.0344, "MEAN_ANOMALY": 192.4387, "EPHEMERIS_TYPE": 0, "CLASSIFICATION_TYPE": "U", "NORAD_CAT_ID": 41882, "ELEMENT_SET_NO": 999, "REV_AT_EPOCH": 3320, "BSTAR": 0, "MEAN_MOTION_DOT": -3.35e-06, "MEAN_MOTION_DDOT": 0}, "tle": {"line1": "1 41882U 16077A   25361.51908753 -.00000335  00000+0  00000+0 0  9999", "line2": "2 41882   1.8841  82.2523 0005301 132.0344 192.4387  1.00279782 33203"}}, "geometry": {"type": "Point", "coordinates": [139.54939144892927, 1.6005679535606427]}}, {"type": "Feature", "properties": {"norad_id": 41884, "name": "CYGFM05", "group": "weather", "lat": 28.147349226295248, "lon": -1.1570239353404912, "alt_km": 418.11973227475846, "timestamp": "2025-12-27T18:38:03.121215+00:00", "meta": {"OBJECT_NAME": "CYGFM05", "OBJECT_ID": "2016-078A", "EPOCH": "2025-12-27T06:00:55.835136", "MEAN_MOTION": 15.48197192, "ECCENTRICITY": 0.0010291, "INCLINATION": 34.9601, "RA_OF_ASC_NODE": 312.3059, "ARG_OF_PERICENTER": 307.7355, "MEAN_ANOMALY": 52.2433, "EPHEMERIS_TYPE": 0, "CLASSIFICATION_TYPE": "U", "NORAD_CAT_ID": 41884, "ELEMENT_SET_NO": 999, "REV_AT_EPOCH": 50201, "BSTAR": 0.0004171, "MEAN_MOTION_DOT": 0.00022691, "MEAN_MOTION_DDOT": 0}, "tle": {"line1": "1 41884U 16078A   25361.25064624  .00022691  00000+0  41710-3 0  9998", "line2": "2 41884  34.9601 312.3059 0010291 307.7355  52.2433 15.48197192502010"}}, "geometry": {"type": "Point", "coordinates": [-1.1570239353404912, 28.147349226295248]}}, {"type": "Feature", "properties": {"norad_id": 41885, "name": "CYGFM04", "group": "weather", "lat": 34.76777283166417, "lon": 7.202470334429924, "alt_km": 409.0782662367292, "timestamp": "2025-12-27T18:38:03.121226+00:00", "meta": {"OBJECT_NAME": "CYGFM04", "OBJECT_ID": "2016-078B", "EPOCH": "2025-12-27T04:22:00.452352", "MEAN_MOTION": 15.50997667, "ECCENTRICITY": 0.0008778, "INCLINATION": 34.9347, "RA_OF_ASC_NODE": 287.1088, "ARG_OF_PERICENTER": 332.0064, "MEAN_ANOMALY": 28.0186, "EPHEMERIS_TYPE": 0, "CLASSIFICATION_TYPE": "U", "NORAD_CAT_ID": 41885, "ELEMENT_SET_NO": 999, "REV_AT_EPOCH": 50218, "BSTAR": 0.00042228, "MEAN_MOTION_DOT": 0.00025367, "MEAN_MOTION_DDOT": 0}, "tle": {"line1": "1 41885U 16078B   25361.18194968  .00025367  00000+0  42228-3 0  9994", "line2": "2 41885  34.9347 287.1088 0008778 332.0064  28.0186 15.50997667502186"}}, "geometry": {"type": "Point", "coordinates": [7.202470334429924, 34.76777283166417]}}, {"type": "Feature", "properties": {"norad_id": 41886, "name": "CYGFM02", "group": "weather", "lat": 3.3022779378108247, "lon": 96.59300175507794, "alt_km": 414.78970701869275, "timestamp": "2025-12-27T18:38:03.121236+00:00", "meta": {"OBJECT_NAME": "CYGFM02", "OBJECT_ID": "2016-078C", "EPOCH": "2025-12-27T05:32:27.052224", "MEAN_MOTION": 15.52425809, "ECCENTRICITY": 0.0010344, "INCLINATION": 34.9434, "RA_OF_ASC_NODE": 284.9233, "ARG_OF_PERICENTER": 334.4073, "MEAN_ANOMALY": 25.6137, "EPHEMERIS_TYPE": 0, "CLASSIFICATION_TYPE": "U", "NORAD_CAT_ID": 41886, "ELEMENT_SET_NO": 999, "REV_AT_EPOCH": 50232, "BSTAR": 0.00042876, "MEAN_MOTION_DOT": 0.0002714, "MEAN_MOTION_DDOT": 0}, "tle": {"line1": "1 41886U 16078C   25361.23086866  .00027140  00000+0  42876-3 0  9998", "line2": "2 41886  34.9434 284.9233 0010344 334.4073  25.6137 15.52425809502320"}}, "geometry": {"type": "Point", "coordinates": [96.59300175507794, 3.3022779378108247]}}, {"type": "Feature", "properties": {"norad_id": 41887, "name": "CYGFM01", "group": "weather", "lat": 25.33165072479562, "lon": 88.42664238087141, "alt_km": 422.08245464946503, "timestamp": "2025-12-27T18:38:03.121246+00:00", "meta": {"OBJECT_NAME": "CYGFM01", "OBJECT_ID": "2016-078D", "EPOCH": "2025-12-27T07:14:23.214912", "MEAN_MOTION": 15.48795798, "ECCENTRICITY": 0.001008, "INCLINATION": 34.9433, "RA_OF_ASC_NODE": 314.2182, "ARG_OF_PERICENTER": 300.4911, "MEAN_ANOMALY": 59.4815, "EPHEMERIS_TYPE": 0, "CLASSIFICATION_TYPE": "U", "NORAD_CAT_ID": 41887, "ELEMENT_SET_NO": 999, "REV_AT_EPOCH": 50196, "BSTAR": 0.00041116, "MEAN_MOTION_DOT": 0.00022842, "MEAN_MOTION_DDOT": 0}, "tle": {"line1": "1 41887U 16078D   25361.30165758  .00022842  00000+0  41116-3 0  9995", "line2": "2 41887  34.9433 314.2182 0010080 300.4911  59.4815 15.48795798501960"}}, "geometry": {"type": "Point", "coordinates": [88.42664238087141, 25.33165072479562]}}, {"type": "Feature", "properties": {"norad_id": 41888, "name": "CYGFM08", "group": "weather", "lat": -31.667684149481286, "lon": 175.9713983367004, "alt_km": 417.4662231561206, "timestamp": "2025-12-27T18:38:03.121258+00:00", "meta": {"OBJECT_NAME": "CYGFM08", "OBJECT_ID": "2016-078E", "EPOCH": "2025-12-27T05:12:34.738272", "MEAN_MOTION": 15.50037263, "ECCENTRICITY": 0.0011159, "INCLINATION": 34.9459, "RA_OF_ASC_NODE": 297.5919, "ARG_OF_PERICENTER": 323.738, "MEAN_ANOMALY": 36.2585, "EPHEMERIS_TYPE": 0, "CLASSIFICATION_TYPE": "U", "NORAD_CAT_ID": 41888, "ELEMENT_SET_NO": 999, "REV_AT_EPOCH": 50218, "BSTAR": 0.00042699, "MEAN_MOTION_DOT": 0.00024808, "MEAN_MOTION_DDOT": 0}, "tle": {"line1": "1 41888U 16078E   25361.21706873  .00024808  00000+0  42699-3 0  9996", "line2": "2 41888  34.9459 297.5919 0011159 323.7380  36.2585 15.50037263502187"}}, "geometry": {"type": "Point", "coordinates": [175.9713983367004, -31.667684149481286]}}, {"type": "Feature", "properties": {"norad_id": 41890, "name": "CYGFM07", "group": "weather", "lat": -34.84266009147629, "lon": -171.74481399562472, "alt_km": 415.5939571220688, "timestamp": "2025-12-27T18:38:03.121268+00:00", "meta": {"OBJECT_NAME": "CYGFM07", "OBJECT_ID": "2016-078G", "EPOCH": "2025-12-27T05:07:48.573696", "MEAN_MOTION": 15.50634821, "ECCENTRICITY": 0.000896, "INCLINATION": 34.9473, "RA_OF_ASC_NODE": 286.5126, "ARG_OF_PERICENTER": 338.6646, "MEAN_ANOMALY": 21.3702, "EPHEMERIS_TYPE": 0, "CLASSIFICATION_TYPE": "U", "NORAD_CAT_ID": 41890, "ELEMENT_SET_NO": 999, "REV_AT_EPOCH": 50220, "BSTAR": 0.00041586, "MEAN_MOTION_DOT": 0.00024657, "MEAN_MOTION_DDOT": 0}, "tle": {"line1": "1 41890U 16078G   25361.21375664  .00024657  00000+0  41586-3 0  9995", "line2": "2 41890  34.9473 286.5126 0008960 338.6646  21.3702 15.50634821502202"}}, "geometry": {"type": "Point", "coordinates": [-171.74481399562472, -34.84266009147629]}}, {"type": "Feature", "properties": {"norad_id": 41891, "name": "CYGFM03", "group": "weather", "lat": 34.73734195146993, "lon": 21.486347476932433, "alt_km": 412.14797622319566, "timestamp": "2025-12-27T18:38:03.121279+00:00", "meta": {"OBJECT_NAME": "CYGFM03", "OBJECT_ID": "2016-078H", "EPOCH": "2025-12-27T12:02:37.312800", "MEAN_MOTION": 15.50543033, "ECCENTRICITY": 0.0008753, "INCLINATION": 34.9428, "RA_OF_ASC_NODE": 286.5495, "ARG_OF_PERICENTER": 327.1486, "MEAN_ANOMALY": 32.8692, "EPHEMERIS_TYPE": 0, "CLASSIFICATION_TYPE": "U", "NORAD_CAT_ID": 41891, "ELEMENT_SET_NO": 999, "REV_AT_EPOCH": 50222, "BSTAR": 0.00043509, "MEAN_MOTION_DOT": 0.00025717, "MEAN_MOTION_DDOT": 0}, "tle": {"line1": "1 41891U 16078H   25361.50182075  .00025717  00000+0  43509-3 0  9995", "line2": "2 41891  34.9428 286.5495 0008753 327.1486  32.8692 15.50543033502228"}}, "geometry": {"type": "Point", "coordinates": [21.486347476932433, 34.73734195146993]}}]}